{
    "links": {
        "self": "http://www.neowsapp.com/rest/v1/neo/3695413?api_key=iIulBulltgU6a56xZRHN4H3l9WmuAYTsLGpBGhQ2"
    },
    "id": "3695413",
    "neo_reference_id": "3695413",
    "name": "(2014 UA176)",
    "designation": "2014 UA176",
    "nasa_jpl_url": "http://ssd.jpl.nasa.gov/sbdb.cgi?sstr=3695413",
    "absolute_magnitude_h": 26.7,
    "estimated_diameter": {
        "kilometers": {
            "estimated_diameter_min": 0.0121494041,
            "estimated_diameter_max": 0.0271668934
        },
        "meters": {
            "estimated_diameter_min": 12.14940408,
            "estimated_diameter_max": 27.1668934089
        },
        "miles": {
            "estimated_diameter_min": 0.0075492874,
            "estimated_diameter_max": 0.0168807197
        },
        "feet": {
            "estimated_diameter_min": 39.8602508817,
            "estimated_diameter_max": 89.1302305717
        }
    },
    "is_potentially_hazardous_asteroid": false,
    "close_approach_data": [
        {
            "close_approach_date": "2014-11-06",
            "close_approach_date_full": "2014-Nov-06 12:10",
            "epoch_date_close_approach": 1415275800000,
            "relative_velocity": {
                "kilometers_per_second": "9.4673449819",
                "kilometers_per_hour": "34082.4419348922",
                "miles_per_hour": "21177.5039900445"
            },
            "miss_distance": {
                "astronomical": "0.0123299035",
                "lunar": "4.7963324615",
                "kilometers": "1844527.300905545",
                "miles": "1146136.117744721"
            },
            "orbiting_body": "Earth"
        },
        {
            "close_approach_date": "2022-10-04",
            "close_approach_date_full": "2022-Oct-04 07:07",
            "epoch_date_close_approach": 1664867220000,
            "relative_velocity": {
                "kilometers_per_second": "21.4538882642",
                "kilometers_per_hour": "77233.9977511034",
                "miles_per_hour": "47990.2026581787"
            },
            "miss_distance": {
                "astronomical": "0.4121606197",
                "lunar": "160.3304810633",
                "kilometers": "61658350.805000039",
                "miles": "38312722.6056729782"
            },
            "orbiting_body": "Earth"
        }
    ],
    "orbital_data": {
        "orbit_id": "8",
        "orbit_determination_date": "2017-04-06 08:37:43",
        "first_observation_date": "2014-10-27",
        "last_observation_date": "2014-11-06",
        "data_arc_in_days": 10,
        "observations_used": 22,
        "orbit_uncertainty": "7",
        "minimum_orbit_intersection": ".000587396",
        "jupiter_tisserand_invariant": "3.760",
        "epoch_osculation": "2459000.5",
        "eccentricity": ".5106672788364357",
        "semi_major_axis": "1.911955841201472",
        "inclination": "4.923230469118561",
        "ascending_node_longitude": "46.4594163104119",
        "orbital_period": "965.6399239360097",
        "perihelion_distance": ".9355825545196877",
        "perihelion_argument": "32.71594200319747",
        "aphelion_distance": "2.888329127883256",
        "perihelion_time": "2458927.799363333929",
        "mean_anomaly": "27.103507789017",
        "mean_motion": ".3728097721277069",
        "equinox": "J2000",
        "orbit_class": {
            "orbit_class_type": "APO",
            "orbit_class_description": "Near-Earth asteroid orbits which cross the Earth’s orbit similar to that of 1862 Apollo",
            "orbit_class_range": "a (semi-major axis) > 1.0 AU; q (perihelion) < 1.017 AU"
        }
    },
    "is_sentry_object": false
}